{
  "type": "FeatureCollection",
  "features": [
    {
      "type": "Feature",
      "properties": {
        "norad_id": 66654,
        "name": "JACK E",
        "group": "last-30-days",
        "lat": -22.69320531613437,
        "lon": -68.56768400529735,
        "alt_km": 602.8244233175028,
        "timestamp": "2025-12-27T05:29:37.915630+00:00",
        "meta_object_name": "JACK E",
        "meta_object_id": "2025-274E",
        "meta_epoch": "2025-12-26T18:19:50.587680",
        "meta_mean_motion": 14.92159432,
        "meta_eccentricity": 0.00124721,
        "meta_inclination": 97.7405,
        "meta_ra_of_asc_node": 287.7147,
        "meta_arg_of_pericenter": 203.4868,
        "meta_mean_anomaly": 156.5783,
        "meta_ephemeris_type": 0,
        "meta_classification_type": "U",
        "meta_norad_cat_id": 66654,
        "meta_element_set_no": 999,
        "meta_rev_at_epoch": 449,
        "meta_bstar": 0.00031144819,
        "meta_mean_motion_dot": 3.118e-05,
        "meta_mean_motion_ddot": 0,
        "tle_line1": "1 66654U 25274E   25360.76377995  .00003118  00000+0  31145-3 0  9995",
        "tle_line2": "2 66654  97.7405 287.7147 0012472 203.4868 156.5783 14.92159432  4496"
      },
      "geometry": {
        "type": "Point",
        "coordinates": [
          -68.56768400529735,
          -22.69320531613437
        ]
      }
    },
    {
      "type": "Feature",
      "properties": {
        "norad_id": 66655,
        "name": "2025-274F",
        "group": "last-30-days",
        "lat": -67.4729909614684,
        "lon": -52.733151390893475,
        "alt_km": 599.1492389832847,
        "timestamp": "2025-12-27T05:29:37.915642+00:00",
        "meta_object_name": "2025-274F",
        "meta_object_id": "2025-274F",
        "meta_epoch": "2025-12-26T20:08:20.531328",
        "meta_mean_motion": 14.91205124,
        "meta_eccentricity": 0.00043542,
        "meta_inclination": 97.7342,
        "meta_ra_of_asc_node": 287.7575,
        "meta_arg_of_pericenter": 333.556,
        "meta_mean_anomaly": 26.5436,
        "meta_ephemeris_type": 0,
        "meta_classification_type": "U",
        "meta_norad_cat_id": 66655,
        "meta_element_set_no": 999,
        "meta_rev_at_epoch": 450,
        "meta_bstar": 2.614683e-06,
        "meta_mean_motion_dot": -2.9e-07,
        "meta_mean_motion_ddot": 0,
        "tle_line1": "1 66655U 25274F   25360.83912652 -.00000029  00000+0  26147-5 0  9996",
        "tle_line2": "2 66655  97.7342 287.7575 0004354 333.5560  26.5436 14.91205124  4508"
      },
      "geometry": {
        "type": "Point",
        "coordinates": [
          -52.733151390893475,
          -67.4729909614684
        ]
      }
    },
    {
      "type": "Feature",
      "properties": {
        "norad_id": 66656,
        "name": "2025-274G",
        "group": "last-30-days",
        "lat": -2.1771603698193163,
        "lon": -71.52430126372487,
        "alt_km": 602.0808853016197,
        "timestamp": "2025-12-27T05:29:37.915652+00:00",
        "meta_object_name": "2025-274G",
        "meta_object_id": "2025-274G",
        "meta_epoch": "2025-12-26T18:14:21.774336",
        "meta_mean_motion": 14.92357214,
        "meta_eccentricity": 0.00130293,
        "meta_inclination": 97.7403,
        "meta_ra_of_asc_node": 287.7186,
        "meta_arg_of_pericenter": 205.1817,
        "meta_mean_anomaly": 154.8769,
        "meta_ephemeris_type": 0,
        "meta_classification_type": "U",
        "meta_norad_cat_id": 66656,
        "meta_element_set_no": 999,
        "meta_rev_at_epoch": 449,
        "meta_bstar": 0.00034998083,
        "meta_mean_motion_dot": 3.529e-05,
        "meta_mean_motion_ddot": 0,
        "tle_line1": "1 66656U 25274G   25360.75997424  .00003529  00000+0  34998-3 0  9996",
        "tle_line2": "2 66656  97.7403 287.7186 0013029 205.1817 154.8769 14.92357214  4494"
      },
      "geometry": {
        "type": "Point",
        "coordinates": [
          -71.52430126372487,
          -2.1771603698193163
        ]
      }
    },
    {
      "type": "Feature",
      "properties": {
        "norad_id": 66657,
        "name": "SPIRONE",
        "group": "last-30-days",
        "lat": 17.28137399424466,
        "lon": -74.23799783110067,
        "alt_km": 597.5922257975708,
        "timestamp": "2025-12-27T05:29:37.915662+00:00",
        "meta_object_name": "SPIRONE",
        "meta_object_id": "2025-274H",
        "meta_epoch": "2025-12-26T18:09:10.152000",
        "meta_mean_motion": 14.92536223,
        "meta_eccentricity": 0.00109736,
        "meta_inclination": 97.7399,
        "meta_ra_of_asc_node": 287.7226,
        "meta_arg_of_pericenter": 222.2811,
        "meta_mean_anomaly": 137.7564,
        "meta_ephemeris_type": 0,
        "meta_classification_type": "U",
        "meta_norad_cat_id": 66657,
        "meta_element_set_no": 999,
        "meta_rev_at_epoch": 449,
        "meta_bstar": 0.00037802358,
        "meta_mean_motion_dot": 3.832e-05,
        "meta_mean_motion_ddot": 0,
        "tle_line1": "1 66657U 25274H   25360.75636750  .00003832  00000+0  37802-3 0  9993",
        "tle_line2": "2 66657  97.7399 287.7226 0010973 222.2811 137.7564 14.92536223  4495"
      },
      "geometry": {
        "type": "Point",
        "coordinates": [
          -74.23799783110067,
          17.28137399424466
        ]
      }
    },
    {
      "type": "Feature",
      "properties": {
        "norad_id": 66658,
        "name": "2025-274J",
        "group": "last-30-days",
        "lat": 36.10595502562753,
        "lon": -77.49770658914862,
        "alt_km": 594.9012449767806,
        "timestamp": "2025-12-27T05:29:37.915674+00:00",
        "meta_object_name": "2025-274J",
        "meta_object_id": "2025-274J",
        "meta_epoch": "2025-12-26T18:04:08.481216",
        "meta_mean_motion": 14.92721317,
        "meta_eccentricity": 0.00114642,
        "meta_inclination": 97.74,
        "meta_ra_of_asc_node": 287.7274,
        "meta_arg_of_pericenter": 225.5118,
        "meta_mean_anomaly": 134.5165,
        "meta_ephemeris_type": 0,
        "meta_classification_type": "U",
        "meta_norad_cat_id": 66658,
        "meta_element_set_no": 999,
        "meta_rev_at_epoch": 449,
        "meta_bstar": 0.00054422256,
        "meta_mean_motion_dot": 5.569e-05,
        "meta_mean_motion_ddot": 0,
        "tle_line1": "1 66658U 25274J   25360.75287594  .00005569  00000+0  54422-3 0  9998",
        "tle_line2": "2 66658  97.7400 287.7274 0011464 225.5118 134.5165 14.92721317  4496"
      },
      "geometry": {
        "type": "Point",
        "coordinates": [
          -77.49770658914862,
          36.10595502562753
        ]
      }
    },
    {
      "type": "Feature",
      "properties": {
        "norad_id": 66659,
        "name": "JACK K",
        "group": "last-30-days",
        "lat": 55.835872642709845,
        "lon": -83.35611963344056,
        "alt_km": 592.0108987302765,
        "timestamp": "2025-12-27T05:29:37.915686+00:00",
        "meta_object_name": "JACK K",
        "meta_object_id": "2025-274K",
        "meta_epoch": "2025-12-26T17:58:48.840096",
        "meta_mean_motion": 14.92886476,
        "meta_eccentricity": 0.00122459,
        "meta_inclination": 97.7403,
        "meta_ra_of_asc_node": 287.7329,
        "meta_arg_of_pericenter": 227.6944,
        "meta_mean_anomaly": 132.3238,
        "meta_ephemeris_type": 0,
        "meta_classification_type": "U",
        "meta_norad_cat_id": 66659,
        "meta_element_set_no": 999,
        "meta_rev_at_epoch": 449,
        "meta_bstar": 0.00034058623,
        "meta_mean_motion_dot": 3.478e-05,
        "meta_mean_motion_ddot": 0,
        "tle_line1": "1 66659U 25274K   25360.74917639  .00003478  00000+0  34059-3 0  9999",
        "tle_line2": "2 66659  97.7403 287.7329 0012245 227.6944 132.3238 14.92886476  4494"
      },
      "geometry": {
        "type": "Point",
        "coordinates": [
          -83.35611963344056,
          55.835872642709845
        ]
      }
    },
    {
      "type": "Feature",
      "properties": {
        "norad_id": 66660,
        "name": "K-HERO",
        "group": "last-30-days",
        "lat": 71.46805287832531,
        "lon": -95.72523980524863,
        "alt_km": 589.6151435791835,
        "timestamp": "2025-12-27T05:29:37.915696+00:00",
        "meta_object_name": "K-HERO",
        "meta_object_id": "2025-274L",
        "meta_epoch": "2025-12-26T17:54:27.478368",
        "meta_mean_motion": 14.93036689,
        "meta_eccentricity": 0.00128683,
        "meta_inclination": 97.7404,
        "meta_ra_of_asc_node": 287.7384,
        "meta_arg_of_pericenter": 228.4819,
        "meta_mean_anomaly": 131.5297,
        "meta_ephemeris_type": 0,
        "meta_classification_type": "U",
        "meta_norad_cat_id": 66660,
        "meta_element_set_no": 999,
        "meta_rev_at_epoch": 449,
        "meta_bstar": 0.00032159571,
        "meta_mean_motion_dot": 3.294e-05,
        "meta_mean_motion_ddot": 0,
        "tle_line1": "1 66660U 25274L   25360.74615137  .00003294  00000+0  32160-3 0  9996",
        "tle_line2": "2 66660  97.7404 287.7384 0012868 228.4819 131.5297 14.93036689  4499"
      },
      "geometry": {
        "type": "Point",
        "coordinates": [
          -95.72523980524863,
          71.46805287832531
        ]
      }
    }
  ]
}